OBJECT_NAME,OBJECT_ID,EPOCH,MEAN_MOTION,ECCENTRICITY,INCLINATION,RA_OF_ASC_NODE,ARG_OF_PERICENTER,MEAN_ANOMALY,EPHEMERIS_TYPE,CLASSIFICATION_TYPE,NORAD_CAT_ID,ELEMENT_SET_NO,REV_AT_EPOCH,BSTAR,MEAN_MOTION_DOT,MEAN_MOTION_DDOT
STARLINK-5529,2023-064AZ,2026-06-17T11:46:43.779072,14.98332246,.00032,69.9991,212.7405,270.5593,89.5199,0,U,56495,999,17118,.2883E-5,-.59E-6,0
STARLINK-5526,2023-064BA,2026-06-17T11:40:42.595968,14.98327606,.0004548,69.9986,212.7263,264.2621,95.8020,0,U,56496,999,17118,-.42363E-4,-.599E-5,0
STARLINK-5527,2023-064BB,2026-06-17T11:34:56.830080,14.98339484,.0003934,69.9992,212.7126,269.5666,90.5042,0,U,56497,999,17118,-.11912E-3,-.1515E-4,0
STARLINK-5522,2023-064BC,2026-06-17T11:52:44.556960,14.98323682,.0003377,69.9990,212.7553,272.3890,87.6882,0,U,56498,999,17118,-.16615E-3,-.2075E-4,0
STARLINK-5775,2023-065A,2026-06-16T07:15:34.497504,15.27578359,.00014624,43.0077,15.3780,276.1104,83.9581,0,U,56503,999,17168,.24844188E-4,.421E-5,0
STARLINK-5716,2023-065B,2026-06-15T20:36:50.651712,15.27577517,.00021282,43.0048,18.0626,269.3757,90.6851,0,U,56504,999,17161,.16801548E-4,.2E-5,0
STARLINK-5763,2023-065C,2026-06-16T20:46:10.725024,15.27583037,.0000989,43.0047,12.7112,243.3817,116.6933,0,U,56505,999,17176,.14229E-4,.13E-5,0
STARLINK-5340,2023-065D,2026-06-16T20:20:16.954080,15.27580446,.0000617,42.9952,1.2656,234.0818,125.9976,0,U,56506,999,17189,.20826E-4,.311E-5,0
STARLINK-5333,2023-065E,2026-06-17T04:37:14.284416,15.27574183,.0001901,43.0079,337.7887,268.7819,91.2815,0,U,56507,999,17219,.21042E-4,.316E-5,0
STARLINK-5335,2023-065F,2026-06-16T21:02:37.299840,15.27578040,.0001192,43.0024,11.9407,271.0971,88.9744,0,U,56508,999,17177,.17455E-4,.218E-5,0
STARLINK-5334,2023-065G,2026-06-16T07:11:52.034784,15.27579373,.00013221,43.0043,15.3486,265.3222,94.7479,0,U,56509,999,17168,.22178499E-4,.348E-5,0
STARLINK-5339,2023-065H,2026-06-16T07:00:47.992896,15.27576014,.00008711,43.0001,15.2976,269.5050,90.5702,0,U,56510,999,17168,.60506995E-4,.1403E-4,0
STARLINK-5351,2023-065J,2026-06-16T07:21:07.063200,15.27579775,.00017002,43.0062,15.3934,277.3710,82.6948,0,U,56511,999,17168,.28544676E-4,.523E-5,0
STARLINK-5349,2023-065K,2026-06-16T07:06:19.916640,15.27572909,.00004017,42.9889,15.3157,86.7028,273.3869,0,U,56512,999,17168,-.190883E-5,-.314E-5,0
STARLINK-5329,2023-065L,2026-06-16T19:59:55.085280,15.27579895,.0001181,42.9986,12.4656,233.0142,127.0602,0,U,56513,999,17176,.26658E-4,.472E-5,0
STARLINK-5348,2023-065N,2026-06-16T20:05:27.255264,15.27590536,.0001734,43.0071,12.4983,270.4121,89.6532,0,U,56515,999,17176,.71439E-4,.1705E-4,0
STARLINK-5342,2023-065P,2026-06-16T07:17:24.726624,15.27581304,.00026308,43.0171,15.3791,269.6976,90.3575,0,U,56516,999,17168,.27353427E-4,.49E-5,0
STARLINK-5345,2023-065Q,2026-06-16T20:22:07.757760,15.27576537,.0001326,43.0035,12.5738,269.8273,90.2427,0,U,56517,999,17176,.11604E-4,.57E-6,0
STARLINK-5346,2023-065R,2026-06-16T20:11:01.701024,15.27578360,.0001704,43.0047,12.5257,272.5761,87.4895,0,U,56518,999,17176,.21395E-4,.326E-5,0
STARLINK-6313,2023-065S,2026-06-16T20:31:22.748160,15.27575006,.0001466,43.0014,12.6190,241.9205,118.1499,0,U,56519,999,17176,.80344E-5,-.41E-6,0
STARLINK-6344,2023-065T,2026-06-16T20:16:35.262912,15.27584274,.0001762,43.0066,12.5506,273.5320,86.5330,0,U,56520,999,17176,.71057E-4,.1694E-4,0
STARLINK-6333,2023-065U,2026-06-16T20:34:23.040768,15.27569171,.0001471,43.0057,16.0403,262.9647,97.1037,0,U,56521,999,17172,-.18797E-4,-.779E-5,0
STARLINK-6327,2023-065V,2026-06-16T20:25:50.081376,15.27578029,.0001433,43.0049,12.5933,260.2489,99.8201,0,U,56522,999,17176,.54179E-4,.1229E-4,0
STARLINK-6328,2023-065W,2026-06-16T06:49:52.520160,15.27576868,.0001155,43.0053,16.0809,265.1300,94.9420,0,U,56523,999,17167,.28503E-4,.522E-5,0
STARLINK-6323,2023-065X,2026-06-16T20:48:01.872576,15.27578390,.0001149,43.0043,12.7127,261.9283,98.1438,0,U,56524,999,17176,.19158E-4,.265E-5,0
STARLINK-6329,2023-065Y,2026-06-16T21:20:02.372640,15.26744847,.0001315,43.0006,23.0910,273.3462,86.7239,0,U,56525,999,17164,.72652E-4,.169E-4,0
STARLINK-6317,2023-065Z,2026-06-16T20:53:34.968768,15.27574586,.0001074,43.0042,12.7369,268.8913,91.1815,0,U,56526,999,17176,.1131E-4,.49E-6,0
STARLINK-6335,2023-065AA,2026-06-16T20:36:10.982880,15.27598171,.000126,43.0067,16.0457,262.9798,97.0910,0,U,56527,999,17172,.66591E-4,.1572E-4,0
STARLINK-6337,2023-065AB,2026-06-16T20:25:07.040352,15.27577933,.0001814,43.0072,15.9909,278.8097,81.2550,0,U,56528,999,17172,.17902E-4,.23E-5,0
STARLINK-6307,2023-065AC,2026-06-16T06:33:15.172992,15.27580174,.0001983,43.0070,4.6967,257.5213,102.5417,0,U,56529,999,17180,.10043E-3,.2502E-4,0
