STARLINK-5529           
1 56495U 23064AZ  26168.49078448 -.00000059  00000+0  28830-5 0  9991
2 56495  69.9991 212.7405 0003200 270.5593  89.5199 14.98332246171182
STARLINK-5526           
1 56496U 23064BA  26168.48660412 -.00000599  00000+0 -42363-4 0  9995
2 56496  69.9986 212.7263 0004548 264.2621  95.8020 14.98327606171184
STARLINK-5527           
1 56497U 23064BB  26168.48260220 -.00001515  00000+0 -11912-3 0  9993
2 56497  69.9992 212.7126 0003934 269.5666  90.5042 14.98339484171188
STARLINK-5522           
1 56498U 23064BC  26168.49496015 -.00002075  00000+0 -16615-3 0  9995
2 56498  69.9990 212.7553 0003377 272.3890  87.6882 14.98323682171185
STARLINK-5775           
1 56503U 23065A   26167.30248261  .00000421  00000+0  24844-4 0  9995
2 56503  43.0077  15.3780 0001462 276.1104  83.9581 15.27578359171689
STARLINK-5716           
1 56504U 23065B   26166.85891958  .00000200  00000+0  16802-4 0  9992
2 56504  43.0048  18.0626 0002128 269.3757  90.6851 15.27577517171618
STARLINK-5763           
1 56505U 23065C   26167.86540191  .00000130  00000+0  14229-4 0  9998
2 56505  43.0047  12.7112 0000989 243.3817 116.6933 15.27583037171761
STARLINK-5340           
1 56506U 23065D   26167.84741845  .00000311  00000+0  20826-4 0  9997
2 56506  42.9952   1.2656 0000617 234.0818 125.9976 15.27580446171892
STARLINK-5333           
1 56507U 23065E   26168.19252644  .00000316  00000+0  21042-4 0  9997
2 56507  43.0079 337.7887 0001901 268.7819  91.2815 15.27574183172192
STARLINK-5335           
1 56508U 23065F   26167.87682060  .00000218  00000+0  17455-4 0  9995
2 56508  43.0024  11.9407 0001192 271.0971  88.9744 15.27578040171773
STARLINK-5334           
1 56509U 23065G   26167.29990781  .00000348  00000+0  22178-4 0  9996
2 56509  43.0043  15.3486 0001322 265.3222  94.7479 15.27579373171680
STARLINK-5339           
1 56510U 23065H   26167.29222214  .00001403  00000+0  60507-4 0  9998
2 56510  43.0001  15.2976 0000871 269.5050  90.5702 15.27576014171684
STARLINK-5351           
1 56511U 23065J   26167.30633175  .00000523  00000+0  28545-4 0  9991
2 56511  43.0062  15.3934 0001700 277.3710  82.6948 15.27579775171680
STARLINK-5349           
1 56512U 23065K   26167.29606385 -.00000314  00000+0 -19088-5 0  9996
2 56512  42.9889  15.3157 0000401  86.7028 273.3869 15.27572909171687
STARLINK-5329           
1 56513U 23065L   26167.83327645  .00000472  00000+0  26658-4 0  9999
2 56513  42.9986  12.4656 0001181 233.0142 127.0602 15.27579895171768
STARLINK-5348           
1 56515U 23065N   26167.83712101  .00001705  00000+0  71439-4 0  9993
2 56515  43.0071  12.4983 0001734 270.4121  89.6532 15.27590536171766
STARLINK-5342           
1 56516U 23065P   26167.30375841  .00000490  00000+0  27353-4 0  9998
2 56516  43.0171  15.3791 0002630 269.6976  90.3575 15.27581304171681
STARLINK-5345           
1 56517U 23065Q   26167.84870090  .00000057  00000+0  11604-4 0  9995
2 56517  43.0035  12.5738 0001326 269.8273  90.2427 15.27576537171760
STARLINK-5346           
1 56518U 23065R   26167.84099191  .00000326  00000+0  21395-4 0  9998
2 56518  43.0047  12.5257 0001704 272.5761  87.4895 15.27578360171766
STARLINK-6313           
1 56519U 23065S   26167.85512440 -.00000041  00000+0  80344-5 0  9992
2 56519  43.0014  12.6190 0001466 241.9205 118.1499 15.27575006171762
STARLINK-6344           
1 56520U 23065T   26167.84485258  .00001694  00000+0  71057-4 0  9993
2 56520  43.0066  12.5506 0001762 273.5320  86.5330 15.27584274171768
STARLINK-6333           
1 56521U 23065U   26167.85721112 -.00000779  00000+0 -18797-4 0  9994
2 56521  43.0057  16.0403 0001471 262.9647  97.1037 15.27569171171722
STARLINK-6327           
1 56522U 23065V   26167.85127409  .00001229  00000+0  54179-4 0  9997
2 56522  43.0049  12.5933 0001433 260.2489  99.8201 15.27578029171764
STARLINK-6328           
1 56523U 23065W   26167.28463565  .00000522  00000+0  28503-4 0  9998
2 56523  43.0053  16.0809 0001155 265.1300  94.9420 15.27576868171676
STARLINK-6323           
1 56524U 23065X   26167.86668834  .00000265  00000+0  19158-4 0  9999
2 56524  43.0043  12.7127 0001149 261.9283  98.1438 15.27578390171766
STARLINK-6329           
1 56525U 23065Y   26167.88891635  .00001690  00000+0  72652-4 0  9990
2 56525  43.0006  23.0910 0001315 273.3462  86.7239 15.26744847171642
STARLINK-6317           
1 56526U 23065Z   26167.87054362  .00000049  00000+0  11310-4 0  9999
2 56526  43.0042  12.7369 0001074 268.8913  91.1815 15.27574586171763
STARLINK-6335           
1 56527U 23065AA  26167.85846045  .00001572  00000+0  66591-4 0  9998
2 56527  43.0067  16.0457 0001260 262.9798  97.0910 15.27598171171722
STARLINK-6337           
1 56528U 23065AB  26167.85077593  .00000230  00000+0  17902-4 0  9995
2 56528  43.0072  15.9909 0001814 278.8097  81.2550 15.27577933171720
STARLINK-6307           
1 56529U 23065AC  26167.27309228  .00002502  00000+0  10043-3 0  9997
2 56529  43.0070   4.6967 0001983 257.5213 102.5417 15.27580174171808
